{"type": "FeatureCollection", "features": [ {"type": "Feature", "properties": {"norad_id": 37717, "name": "FENGYUN 1C DEB", "group": "fengyun-1c-debris", "lat": 70.55899556808546, "lon": -81.11112459333587, "alt_km": 540.9720554142377, "timestamp": "2025-12-14T16:47:40.973038+00:00", "meta": {"OBJECT_NAME": "FENGYUN 1C DEB", "OBJECT_ID": "1999-025EMJ", "EPOCH": "2025-12-13T15:33:02.109312", "MEAN_MOTION": 14.94041675, "ECCENTRICITY": 0.0058628, "INCLINATION": 98.7254, "RA_OF_ASC_NODE": 303.5143, "ARG_OF_PERICENTER": 99.9726, "MEAN_ANOMALY": 78.8144, "EPHEMERIS_TYPE": 0, "CLASSIFICATION_TYPE": "U", "NORAD_CAT_ID": 37717, "ELEMENT_SET_NO": 999, "REV_AT_EPOCH": 89411, "BSTAR": 0.002780585, "MEAN_MOTION_DOT": 0.00030743, "MEAN_MOTION_DDOT": 0}, "tle": {"line1": "1 37717U 99025EMJ 25347.64794108  .00030743  00000+0  27806-2 0  9991", "line2": "2 37717  98.7254 303.5143 0058628  99.9726  78.8144 14.94041675894118"}}, "geometry": {"type": "Point", "coordinates": [-81.11112459333587, 70.55899556808546]}}, {"type": "Feature", "properties": {"norad_id": 37902, "name": "FENGYUN 1C DEB", "group": "fengyun-1c-debris", "lat": 64.3212028744201, "lon": -169.8191932946868, "alt_km": 1184.777163489498, "timestamp": "2025-12-14T16:47:40.973051+00:00", "meta": {"OBJECT_NAME": "FENGYUN 1C DEB", "OBJECT_ID": "1999-025ENB", "EPOCH": "2025-12-07T14:03:14.833440", "MEAN_MOTION": 13.52640367, "ECCENTRICITY": 0.03237878, "INCLINATION": 98.6837, "RA_OF_ASC_NODE": 202.4677, "ARG_OF_PERICENTER": 320.2654, "MEAN_ANOMALY": 37.5166, "EPHEMERIS_TYPE": 0, "CLASSIFICATION_TYPE": "U", "NORAD_CAT_ID": 37902, "ELEMENT_SET_NO": 999, "REV_AT_EPOCH": 62907, "BSTAR": 0.003775391, "MEAN_MOTION_DOT": 3.447e-05, "MEAN_MOTION_DDOT": 0}, "tle": {"line1": "1 37902U 99025ENB 25341.58558835  .00003447  00000+0  37754-2 0  9993", "line2": "2 37902  98.6837 202.4677 0323787 320.2654  37.5166 13.52640367629073"}}, "geometry": {"type": "Point", "coordinates": [-169.8191932946868, 64.3212028744201]}}, {"type": "Feature", "properties": {"norad_id": 37906, "name": "FENGYUN 1C DEB", "group": "fengyun-1c-debris", "lat": -70.93941918411184, "lon": -179.7475264981074, "alt_km": 1043.6751553897093, "timestamp": "2025-12-14T16:47:40.973061+00:00", "meta": {"OBJECT_NAME": "FENGYUN 1C DEB", "OBJECT_ID": "1999-025ENF", "EPOCH": "2025-12-10T09:03:53.057088", "MEAN_MOTION": 13.80782296, "ECCENTRICITY": 0.01623387, "INCLINATION": 99.6029, "RA_OF_ASC_NODE": 25.2001, "ARG_OF_PERICENTER": 34.7127, "MEAN_ANOMALY": 347.1535, "EPHEMERIS_TYPE": 0, "CLASSIFICATION_TYPE": "U", "NORAD_CAT_ID": 37906, "ELEMENT_SET_NO": 999, "REV_AT_EPOCH": 59423, "BSTAR": 0.00082923409, "MEAN_MOTION_DOT": 9.18e-06, "MEAN_MOTION_DDOT": 0}, "tle": {"line1": "1 37906U 99025ENF 25344.37769742  .00000918  00000+0  82923-3 0  9997", "line2": "2 37906  99.6029  25.2001 0162338  34.7127 347.1535 13.80782296594236"}}, "geometry": {"type": "Point", "coordinates": [-179.7475264981074, -70.93941918411184]}}, {"type": "Feature", "properties": {"norad_id": 37907, "name": "FENGYUN 1C DEB", "group": "fengyun-1c-debris", "lat": 40.768403783593634, "lon": -70.33380886261884, "alt_km": 775.5430113200373, "timestamp": "2025-12-14T16:47:40.973071+00:00", "meta": {"OBJECT_NAME": "FENGYUN 1C DEB", "OBJECT_ID": "1999-025ENG", "EPOCH": "2025-12-11T13:55:19.191936", "MEAN_MOTION": 14.23531669, "ECCENTRICITY": 0.00636609, "INCLINATION": 99.0808, "RA_OF_ASC_NODE": 98.5214, "ARG_OF_PERICENTER": 188.9882, "MEAN_ANOMALY": 171.016, "EPHEMERIS_TYPE": 0, "CLASSIFICATION_TYPE": "U", "NORAD_CAT_ID": 37907, "ELEMENT_SET_NO": 999, "REV_AT_EPOCH": 83256, "BSTAR": 0.0046875695, "MEAN_MOTION_DOT": 0.0001086, "MEAN_MOTION_DDOT": 0}, "tle": {"line1": "1 37907U 99025ENG 25345.58008324  .00010860  00000+0  46876-2 0  9997", "line2": "2 37907  99.0808  98.5214 0063660 188.9882 171.0160 14.23531669832566"}}, "geometry": {"type": "Point", "coordinates": [-70.33380886261884, 40.768403783593634]}}, {"type": "Feature", "properties": {"norad_id": 37908, "name": "FENGYUN 1C DEB", "group": "fengyun-1c-debris", "lat": 6.578046448140707, "lon": 19.65084467076063, "alt_km": 815.21135041651, "timestamp": "2025-12-14T16:47:40.973081+00:00", "meta": {"OBJECT_NAME": "FENGYUN 1C DEB", "OBJECT_ID": "1999-025ENH", "EPOCH": "2025-12-06T19:52:32.356992", "MEAN_MOTION": 14.36573191, "ECCENTRICITY": 0.00744593, "INCLINATION": 99.1512, "RA_OF_ASC_NODE": 12.3562, "ARG_OF_PERICENTER": 174.8209, "MEAN_ANOMALY": 185.3763, "EPHEMERIS_TYPE": 0, "CLASSIFICATION_TYPE": "U", "NORAD_CAT_ID": 37908, "ELEMENT_SET_NO": 999, "REV_AT_EPOCH": 63976, "BSTAR": 0.0009644739, "MEAN_MOTION_DOT": 2.877e-05, "MEAN_MOTION_DDOT": 0}, "tle": {"line1": "1 37908U 99025ENH 25340.82815228  .00002877  00000+0  96447-3 0  9998", "line2": "2 37908  99.1512  12.3562 0074459 174.8209 185.3763 14.36573191639769"}}, "geometry": {"type": "Point", "coordinates": [19.65084467076063, 6.578046448140707]}}, {"type": "Feature", "properties": {"norad_id": 37912, "name": "FENGYUN 1C DEB", "group": "fengyun-1c-debris", "lat": 1.9680681625738876, "lon": 137.69439745994399, "alt_km": 892.9965065121387, "timestamp": "2025-12-14T16:47:40.973091+00:00", "meta": {"OBJECT_NAME": "FENGYUN 1C DEB", "OBJECT_ID": "1999-025ENM", "EPOCH": "2025-12-13T09:20:26.111040", "MEAN_MOTION": 14.11501347, "ECCENTRICITY": 0.00918324, "INCLINATION": 99.229, "RA_OF_ASC_NODE": 316.0271, "ARG_OF_PERICENTER": 58.1051, "MEAN_ANOMALY": 302.9013, "EPHEMERIS_TYPE": 0, "CLASSIFICATION_TYPE": "U", "NORAD_CAT_ID": 37912, "ELEMENT_SET_NO": 999, "REV_AT_EPOCH": 77297, "BSTAR": 0.0030217833, "MEAN_MOTION_DOT": 5.659e-05, "MEAN_MOTION_DDOT": 0}, "tle": {"line1": "1 37912U 99025ENM 25347.38919110  .00005659  00000+0  30218-2 0  9990", "line2": "2 37912  99.2290 316.0271 0091832  58.1051 302.9013 14.11501347772975"}}, "geometry": {"type": "Point", "coordinates": [137.69439745994399, 1.9680681625738876]}}, {"type": "Feature", "properties": {"norad_id": 37918, "name": "FENGYUN 1C DEB", "group": "fengyun-1c-debris", "lat": 17.35305146425196, "lon": -64.60060710854137, "alt_km": 783.957323159606, "timestamp": "2025-12-14T16:47:40.973101+00:00", "meta": {"OBJECT_NAME": "FENGYUN 1C DEB", "OBJECT_ID": "1999-025ENT", "EPOCH": "2025-12-12T14:29:21.042528", "MEAN_MOTION": 14.34385023, "ECCENTRICITY": 0.00551873, "INCLINATION": 99.0279, "RA_OF_ASC_NODE": 296.0587, "ARG_OF_PERICENTER": 284.0571, "MEAN_ANOMALY": 75.4482, "EPHEMERIS_TYPE": 0, "CLASSIFICATION_TYPE": "U", "NORAD_CAT_ID": 37918, "ELEMENT_SET_NO": 999, "REV_AT_EPOCH": 3540, "BSTAR": 0.0012154208, "MEAN_MOTION_DOT": 3.431e-05, "MEAN_MOTION_DDOT": 0}, "tle": {"line1": "1 37918U 99025ENT 25346.60371577  .00003431  00000+0  12154-2 0  9994", "line2": "2 37918  99.0279 296.0587 0055187 284.0571  75.4482 14.34385023 35401"}}, "geometry": {"type": "Point", "coordinates": [-64.60060710854137, 17.35305146425196]}}, {"type": "Feature", "properties": {"norad_id": 37919, "name": "FENGYUN 1C DEB", "group": "fengyun-1c-debris", "lat": 41.790562216196015, "lon": 114.91384400729656, "alt_km": 820.339700247725, "timestamp": "2025-12-14T16:47:40.973123+00:00", "meta": {"OBJECT_NAME": "FENGYUN 1C DEB", "OBJECT_ID": "1999-025ENU", "EPOCH": "2025-12-12T06:55:51.957984", "MEAN_MOTION": 14.2676163, "ECCENTRICITY": 0.00496798, "INCLINATION": 99.0576, "RA_OF_ASC_NODE": 284.2227, "ARG_OF_PERICENTER": 17.6806, "MEAN_ANOMALY": 342.6088, "EPHEMERIS_TYPE": 0, "CLASSIFICATION_TYPE": "U", "NORAD_CAT_ID": 37919, "ELEMENT_SET_NO": 999, "REV_AT_EPOCH": 64902, "BSTAR": 0.00082874062, "MEAN_MOTION_DOT": 1.986e-05, "MEAN_MOTION_DDOT": 0}, "tle": {"line1": "1 37919U 99025ENU 25346.28879581  .00001986  00000+0  82874-3 0  9997", "line2": "2 37919  99.0576 284.2227 0049679  17.6806 342.6088 14.26761630649025"}}, "geometry": {"type": "Point", "coordinates": [114.91384400729656, 41.790562216196015]}}, {"type": "Feature", "properties": {"norad_id": 37921, "name": "FENGYUN 1C DEB", "group": "fengyun-1c-debris", "lat": -28.40661129601895, "lon": -155.19484149195776, "alt_km": 942.2826802340724, "timestamp": "2025-12-14T16:47:40.973136+00:00", "meta": {"OBJECT_NAME": "FENGYUN 1C DEB", "OBJECT_ID": "1999-025ENW", "EPOCH": "2025-12-12T08:43:43.070016", "MEAN_MOTION": 13.95155654, "ECCENTRICITY": 0.00843507, "INCLINATION": 99.0222, "RA_OF_ASC_NODE": 27.4497, "ARG_OF_PERICENTER": 99.7165, "MEAN_ANOMALY": 261.3537, "EPHEMERIS_TYPE": 0, "CLASSIFICATION_TYPE": "U", "NORAD_CAT_ID": 37921, "ELEMENT_SET_NO": 999, "REV_AT_EPOCH": 63142, "BSTAR": 0.00015923502, "MEAN_MOTION_DOT": 1.79e-06, "MEAN_MOTION_DDOT": 0}, "tle": {"line1": "1 37921U 99025ENW 25346.36369294  .00000179  00000+0  15924-3 0  9999", "line2": "2 37921  99.0222  27.4497 0084350  99.7165 261.3537 13.95155654631425"}}, "geometry": {"type": "Point", "coordinates": [-155.19484149195776, -28.40661129601895]}}, {"type": "Feature", "properties": {"norad_id": 37925, "name": "FENGYUN 1C DEB", "group": "fengyun-1c-debris", "lat": -39.90923672093615, "lon": 30.41877202164147, "alt_km": 652.2429747412189, "timestamp": "2025-12-14T16:47:40.973146+00:00", "meta": {"OBJECT_NAME": "FENGYUN 1C DEB", "OBJECT_ID": "1999-025EPA", "EPOCH": "2025-12-13T21:57:14.668704", "MEAN_MOTION": 14.8032494, "ECCENTRICITY": 0.0056609, "INCLINATION": 99.0869, "RA_OF_ASC_NODE": 217.2239, "ARG_OF_PERICENTER": 339.4126, "MEAN_ANOMALY": 20.4801, "EPHEMERIS_TYPE": 0, "CLASSIFICATION_TYPE": "U", "NORAD_CAT_ID": 37925, "ELEMENT_SET_NO": 999, "REV_AT_EPOCH": 65700, "BSTAR": 0.0020655295, "MEAN_MOTION_DOT": 0.00016148, "MEAN_MOTION_DDOT": 0}, "tle": {"line1": "1 37925U 99025EPA 25347.91475311  .00016148  00000+0  20655-2 0  9992", "line2": "2 37925  99.0869 217.2239 0056609 339.4126  20.4801 14.80324940657007"}}, "geometry": {"type": "Point", "coordinates": [30.41877202164147, -39.90923672093615]}}]}